{"type": "FeatureCollection", "features": [{"type": "Feature", "properties": {"norad_id": 28054, "name": "DMSP 5D-3 F16 (USA 172)", "group": "weather", "lat": -55.71646198463249, "lon": 14.58920873830608, "alt_km": 847.0257991146364, "timestamp": "2025-12-09T16:56:36.222225+00:00", "meta": {"OBJECT_NAME": "DMSP 5D-3 F16 (USA 172)", "OBJECT_ID": "2003-048A", "EPOCH": "2025-12-09T10:55:28.707168", "MEAN_MOTION": 14.14422591, "ECCENTRICITY": 0.0006613, "INCLINATION": 99.0048, "RA_OF_ASC_NODE": 0.8863, "ARG_OF_PERICENTER": 331.0856, "MEAN_ANOMALY": 135.9876, "EPHEMERIS_TYPE": 0, "CLASSIFICATION_TYPE": "U", "NORAD_CAT_ID": 28054, "ELEMENT_SET_NO": 999, "REV_AT_EPOCH": 14266, "BSTAR": 0.00014838, "MEAN_MOTION_DOT": 2.39e-06, "MEAN_MOTION_DDOT": 0}, "tle": {"line1": "1 28054U 03048A   25343.45519337  .00000239  00000+0  14838-3 0  9998", "line2": "2 28054  99.0048   0.8863 0006613 331.0856 135.9876 14.14422591142669"}}, "geometry": {"type": "Point", "coordinates": [14.58920873830608, -55.71646198463249]}}, {"type": "Feature", "properties": {"norad_id": 28912, "name": "METEOSAT-9 (MSG-2)", "group": "weather", "lat": -5.418411522462843, "lon": 18.85049696419981, "alt_km": 35796.94940211064, "timestamp": "2025-12-09T16:56:36.222281+00:00", "meta": {"OBJECT_NAME": "METEOSAT-9 (MSG-2)", "OBJECT_ID": "2005-049B", "EPOCH": "2025-12-08T20:40:05.248704", "MEAN_MOTION": 1.00274262, "ECCENTRICITY": 0.000384, "INCLINATION": 8.931, "RA_OF_ASC_NODE": 56.0124, "ARG_OF_PERICENTER": 190.0622, "MEAN_ANOMALY": 187.4345, "EPHEMERIS_TYPE": 0, "CLASSIFICATION_TYPE": "U", "NORAD_CAT_ID": 28912, "ELEMENT_SET_NO": 999, "REV_AT_EPOCH": 509, "BSTAR": 0, "MEAN_MOTION_DOT": 1.23e-06, "MEAN_MOTION_DDOT": 0}, "tle": {"line1": "1 28912U 05049B   25342.86117186  .00000123  00000+0  00000+0 0  9998", "line2": "2 28912   8.9310  56.0124 0003840 190.0622 187.4345  1.00274262  5098"}}, "geometry": {"type": "Point", "coordinates": [18.85049696419981, -5.418411522462843]}}, {"type": "Feature", "properties": {"norad_id": 29522, "name": "DMSP 5D-3 F17 (USA 191)", "group": "weather", "lat": -57.37604253065428, "lon": 155.2539074877756, "alt_km": 842.9503422355892, "timestamp": "2025-12-09T16:56:36.222302+00:00", "meta": {"OBJECT_NAME": "DMSP 5D-3 F17 (USA 191)", "OBJECT_ID": "2006-050A", "EPOCH": "2025-12-09T10:43:41.848032", "MEAN_MOTION": 14.14917572, "ECCENTRICITY": 0.0009289, "INCLINATION": 98.7393, "RA_OF_ASC_NODE": 348.9047, "ARG_OF_PERICENTER": 235.0519, "MEAN_ANOMALY": 124.9782, "EPHEMERIS_TYPE": 0, "CLASSIFICATION_TYPE": "U", "NORAD_CAT_ID": 29522, "ELEMENT_SET_NO": 999, "REV_AT_EPOCH": 98558, "BSTAR": 0.00018313, "MEAN_MOTION_DOT": 3.11e-06, "MEAN_MOTION_DDOT": 0}, "tle": {"line1": "1 29522U 06050A   25343.44701213  .00000311  00000+0  18313-3 0  9993", "line2": "2 29522  98.7393 348.9047 0009289 235.0519 124.9782 14.14917572985588"}}, "geometry": {"type": "Point", "coordinates": [155.2539074877756, -57.37604253065428]}}, {"type": "Feature", "properties": {"norad_id": 32958, "name": "FENGYUN 3A", "group": "weather", "lat": -78.36719065758331, "lon": 55.469945681564724, "alt_km": 831.2286843542843, "timestamp": "2025-12-09T16:56:36.222317+00:00", "meta": {"OBJECT_NAME": "FENGYUN 3A", "OBJECT_ID": "2008-026A", "EPOCH": "2025-12-09T10:38:10.212000", "MEAN_MOTION": 14.19513001, "ECCENTRICITY": 0.0008047, "INCLINATION": 98.6694, "RA_OF_ASC_NODE": 283.0395, "ARG_OF_PERICENTER": 320.8035, "MEAN_ANOMALY": 39.2557, "EPHEMERIS_TYPE": 0, "CLASSIFICATION_TYPE": "U", "NORAD_CAT_ID": 32958, "ELEMENT_SET_NO": 999, "REV_AT_EPOCH": 90848, "BSTAR": 0.00013343, "MEAN_MOTION_DOT": 2.38e-06, "MEAN_MOTION_DDOT": 0}, "tle": {"line1": "1 32958U 08026A   25343.44317375  .00000238  00000+0  13343-3 0  9993", "line2": "2 32958  98.6694 283.0395 0008047 320.8035  39.2557 14.19513001908486"}}, "geometry": {"type": "Point", "coordinates": [55.469945681564724, -78.36719065758331]}}, {"type": "Feature", "properties": {"norad_id": 35491, "name": "GOES 14", "group": "weather", "lat": 0.7624735888630666, "lon": -135.46282805245477, "alt_km": 35769.184241480136, "timestamp": "2025-12-09T16:56:36.222333+00:00", "meta": {"OBJECT_NAME": "GOES 14", "OBJECT_ID": "2009-033A", "EPOCH": "2025-12-09T12:05:55.275072", "MEAN_MOTION": 1.00273223, "ECCENTRICITY": 0.0004031, "INCLINATION": 1.1912, "RA_OF_ASC_NODE": 85.4442, "ARG_OF_PERICENTER": 154.8874, "MEAN_ANOMALY": 271.343, "EPHEMERIS_TYPE": 0, "CLASSIFICATION_TYPE": "U", "NORAD_CAT_ID": 35491, "ELEMENT_SET_NO": 999, "REV_AT_EPOCH": 469, "BSTAR": 0, "MEAN_MOTION_DOT": -6.6e-07, "MEAN_MOTION_DDOT": 0}, "tle": {"line1": "1 35491U 09033A   25343.50411198 -.00000066  00000+0  00000+0 0  9994", "line2": "2 35491   1.1912  85.4442 0004031 154.8874 271.3430  1.00273223  4699"}}, "geometry": {"type": "Point", "coordinates": [-135.46282805245477, 0.7624735888630666]}}, {"type": "Feature", "properties": {"norad_id": 35951, "name": "DMSP 5D-3 F18 (USA 210)", "group": "weather", "lat": 70.44471810838401, "lon": 166.24423160048966, "alt_km": 829.2572713190648, "timestamp": "2025-12-09T16:56:36.222347+00:00", "meta": {"OBJECT_NAME": "DMSP 5D-3 F18 (USA 210)", "OBJECT_ID": "2009-057A", "EPOCH": "2025-12-09T11:20:46.662720", "MEAN_MOTION": 14.14766385, "ECCENTRICITY": 0.0012098, "INCLINATION": 98.8831, "RA_OF_ASC_NODE": 319.8899, "ARG_OF_PERICENTER": 71.2846, "MEAN_ANOMALY": 288.9639, "EPHEMERIS_TYPE": 0, "CLASSIFICATION_TYPE": "U", "NORAD_CAT_ID": 35951, "ELEMENT_SET_NO": 999, "REV_AT_EPOCH": 83276, "BSTAR": 0.00026388, "MEAN_MOTION_DOT": 4.64e-06, "MEAN_MOTION_DDOT": 0}, "tle": {"line1": "1 35951U 09057A   25343.47276230  .00000464  00000+0  26388-3 0  9995", "line2": "2 35951  98.8831 319.8899 0012098  71.2846 288.9639 14.14766385832763"}}, "geometry": {"type": "Point", "coordinates": [166.24423160048966, 70.44471810838401]}}, {"type": "Feature", "properties": {"norad_id": 36411, "name": "EWS-G2 (GOES 15)", "group": "weather", "lat": -0.6171278200838992, "lon": 34.32560403744813, "alt_km": 35804.599120512394, "timestamp": "2025-12-09T16:56:36.222361+00:00", "meta": {"OBJECT_NAME": "EWS-G2 (GOES 15)", "OBJECT_ID": "2010-008A", "EPOCH": "2025-12-09T10:26:25.684800", "MEAN_MOTION": 1.00268986, "ECCENTRICITY": 0.0005926, "INCLINATION": 0.8059, "RA_OF_ASC_NODE": 86.0561, "ARG_OF_PERICENTER": 173.4823, "MEAN_ANOMALY": 36.9301, "EPHEMERIS_TYPE": 0, "CLASSIFICATION_TYPE": "U", "NORAD_CAT_ID": 36411, "ELEMENT_SET_NO": 999, "REV_AT_EPOCH": 5773, "BSTAR": 0, "MEAN_MOTION_DOT": 4e-07, "MEAN_MOTION_DDOT": 0}, "tle": {"line1": "1 36411U 10008A   25343.43501950  .00000040  00000+0  00000+0 0  9990", "line2": "2 36411   0.8059  86.0561 0005926 173.4823  36.9301  1.00268986 57739"}}, "geometry": {"type": "Point", "coordinates": [34.32560403744813, -0.6171278200838992]}}, {"type": "Feature", "properties": {"norad_id": 36744, "name": "COMS 1", "group": "weather", "lat": 1.7104520150453515, "lon": 100.9594896619329, "alt_km": 35790.8818681359, "timestamp": "2025-12-09T16:56:36.222375+00:00", "meta": {"OBJECT_NAME": "COMS 1", "OBJECT_ID": "2010-032A", "EPOCH": "2025-12-09T09:21:51.708384", "MEAN_MOTION": 1.00271003, "ECCENTRICITY": 0.0001123, "INCLINATION": 4.3332, "RA_OF_ASC_NODE": 78.0339, "ARG_OF_PERICENTER": 202.3345, "MEAN_ANOMALY": 66.6545, "EPHEMERIS_TYPE": 0, "CLASSIFICATION_TYPE": "U", "NORAD_CAT_ID": 36744, "ELEMENT_SET_NO": 999, "REV_AT_EPOCH": 4918, "BSTAR": 0, "MEAN_MOTION_DOT": -3.43e-06, "MEAN_MOTION_DDOT": 0}, "tle": {"line1": "1 36744U 10032A   25343.39018181 -.00000343  00000+0  00000+0 0  9997", "line2": "2 36744   4.3332  78.0339 0001123 202.3345  66.6545  1.00271003 49185"}}, "geometry": {"type": "Point", "coordinates": [100.9594896619329, 1.7104520150453515]}}, {"type": "Feature", "properties": {"norad_id": 37214, "name": "FENGYUN 3B", "group": "weather", "lat": 69.82804273021914, "lon": -1.8652782393413678, "alt_km": 829.5343257328741, "timestamp": "2025-12-09T16:56:36.222387+00:00", "meta": {"OBJECT_NAME": "FENGYUN 3B", "OBJECT_ID": "2010-059A", "EPOCH": "2025-12-09T13:56:14.824032", "MEAN_MOTION": 14.14788114, "ECCENTRICITY": 0.0022252, "INCLINATION": 98.9905, "RA_OF_ASC_NODE": 23.5357, "ARG_OF_PERICENTER": 6.7468, "MEAN_ANOMALY": 147.3628, "EPHEMERIS_TYPE": 0, "CLASSIFICATION_TYPE": "U", "NORAD_CAT_ID": 37214, "ELEMENT_SET_NO": 999, "REV_AT_EPOCH": 78061, "BSTAR": 0.00012837, "MEAN_MOTION_DOT": 2.03e-06, "MEAN_MOTION_DDOT": 0}, "tle": {"line1": "1 37214U 10059A   25343.58072713  .00000203  00000+0  12837-3 0  9990", "line2": "2 37214  98.9905  23.5357 0022252   6.7468 147.3628 14.14788114780610"}}, "geometry": {"type": "Point", "coordinates": [-1.8652782393413678, 69.82804273021914]}}, {"type": "Feature", "properties": {"norad_id": 37849, "name": "SUOMI NPP", "group": "weather", "lat": -40.52662260323611, "lon": 93.48544334632825, "alt_km": 833.6414149292123, "timestamp": "2025-12-09T16:56:36.222399+00:00", "meta": {"OBJECT_NAME": "SUOMI NPP", "OBJECT_ID": "2011-061A", "EPOCH": "2025-12-09T12:31:20.064864", "MEAN_MOTION": 14.19512877, "ECCENTRICITY": 0.0002141, "INCLINATION": 98.7769, "RA_OF_ASC_NODE": 280.8924, "ARG_OF_PERICENTER": 125.7694, "MEAN_ANOMALY": 234.3681, "EPHEMERIS_TYPE": 0, "CLASSIFICATION_TYPE": "U", "NORAD_CAT_ID": 37849, "ELEMENT_SET_NO": 999, "REV_AT_EPOCH": 73153, "BSTAR": 0.00012535, "MEAN_MOTION_DOT": 2.2e-06, "MEAN_MOTION_DDOT": 0}, "tle": {"line1": "1 37849U 11061A   25343.52176001  .00000220  00000+0  12535-3 0  9991", "line2": "2 37849  98.7769 280.8924 0002141 125.7694 234.3681 14.19512877731535"}}, "geometry": {"type": "Point", "coordinates": [93.48544334632825, -40.52662260323611]}}]}